[
  {
    "type": "way",
    "id": 237885081,
    "center": {
      "lat": 41.5604838,
      "lon": -71.68088
    },
    "tags": {
      "bicycle": "yes",
      "foot": "yes",
      "highway": "path",
      "motor_vehicle": "no",
      "name": "Upper Roaring Brook Handicapped Access Trail",
      "wheelchair": "yes"
    }
  },
  {
    "type": "way",
    "id": 238849302,
    "center": {
      "lat": 41.5583305,
      "lon": -71.6838564
    },
    "tags": {
      "bicycle": "no",
      "bridge": "yes",
      "foot": "yes",
      "highway": "path",
      "layer": "1",
      "motor_vehicle": "no",
      "name": "Upper Roaring Brook Handicapped Access Trail",
      "wheelchair": "yes"
    }
  },
  {
    "type": "way",
    "id": 238849303,
    "center": {
      "lat": 41.5582541,
      "lon": -71.683834
    },
    "tags": {
      "bicycle": "no",
      "foot": "yes",
      "highway": "path",
      "motor_vehicle": "no",
      "name": "Upper Roaring Brook Handicapped Access Trail",
      "wheelchair": "yes"
    }
  },
  {
    "type": "way",
    "id": 238881818,
    "center": {
      "lat": 41.5595165,
      "lon": -71.6828463
    },
    "tags": {
      "access": "yes",
      "bicycle": "no",
      "foot": "yes",
      "highway": "path",
      "motor_vehicle": "no",
      "name": "Upper Roaring Brook Handicapped Access Trail",
      "surface": "ground",
      "wheelchair": "yes"
    }
  },
  {
    "type": "way",
    "id": 298110704,
    "center": {
      "lat": 41.8243234,
      "lon": -71.387311
    },
    "tags": {
      "leisure": "dog_park",
      "name": "Gano Dog Park",
      "wheelchair": "yes"
    }
  },
  {
    "type": "way",
    "id": 458997560,
    "center": {
      "lat": 41.5018008,
      "lon": -71.268378
    },
    "tags": {
      "bicycle": "no",
      "highway": "path",
      "smoothness": "intermediate",
      "surface": "asphalt",
      "wheelchair": "yes"
    }
  },
  {
    "type": "way",
    "id": 458997561,
    "center": {
      "lat": 41.5015298,
      "lon": -71.2687236
    },
    "tags": {
      "highway": "path",
      "smoothness": "intermediate",
      "surface": "asphalt",
      "trail_visibility": "excellent",
      "wheelchair": "yes"
    }
  },
  {
    "type": "way",
    "id": 458997562,
    "center": {
      "lat": 41.5007824,
      "lon": -71.2693821
    },
    "tags": {
      "highway": "path",
      "smoothness": "intermediate",
      "surface": "paved",
      "trail_visibility": "excellent",
      "wheelchair": "yes"
    }
  },
  {
    "type": "way",
    "id": 470062391,
    "center": {
      "lat": 41.8283484,
      "lon": -71.3822958
    },
    "tags": {
      "access": "yes",
      "addr:city": "Providence",
      "addr:housenumber": "320",
      "addr:postcode": "02906",
      "addr:state": "RI",
      "addr:street": "Waterman Street",
      "leisure": "dog_park",
      "name": "Waterman Dog Park",
      "wheelchair": "yes"
    }
  },
  {
    "type": "way",
    "id": 1214586522,
    "center": {
      "lat": 41.5606283,
      "lon": -71.6816431
    },
    "tags": {
      "bicycle": "yes",
      "foot": "yes",
      "highway": "path",
      "motor_vehicle": "no",
      "name": "Upper Roaring Brook Handicapped Access Trail",
      "wheelchair": "yes"
    }
  },
  {
    "type": "way",
    "id": 1214586523,
    "center": {
      "lat": 41.5605831,
      "lon": -71.681476
    },
    "tags": {
      "bicycle": "yes",
      "bridge": "yes",
      "foot": "yes",
      "highway": "path",
      "layer": "1",
      "motor_vehicle": "no",
      "name": "Upper Roaring Brook Handicapped Access Trail",
      "wheelchair": "yes"
    }
  }
]